KAITUO 1B               
1 40912U 15049P   18037.55991846  .00000936  00000-0  48654-4 0  9990
2 40912  97.4512  46.7592 0017375 103.9383  12.8224 15.18421491131841
TIANWANG 1C (TW-1C)     
1 40926U 15051B   18037.82476566  .00005313  00000-0  10711-3 0  9991
2 40926  97.2006  80.8457 0011864  43.9197  71.9275 15.46911617133146
TIANWANG 1B (TW-1B)     
1 40927U 15051C   18037.80392986  .00005390  00000-0  11307-3 0  9990
2 40927  97.2096  80.7287 0012078  53.8139  34.8932 15.45733736133062
TIANWANG 1A (TW-1A)     
1 40928U 15051D   18037.46238507  .00002257  00000-0  62519-4 0  9992
2 40928  97.2013  73.9853 0014335  76.9459  30.3909 15.37906200132685
LAPAN-A2 (IO-86)        
1 40931U 15052B   18034.38694402  .00000718  00000-0  10845-4 0  9990
2 40931   5.9989  24.1493 0013994 277.8347  82.0376 14.76563270127193
LQSAT                   
1 40958U 15057A   18037.53886101  .00000015  00000-0  10112-4 0  9990
2 40958  97.9539 113.4709 0019204  39.8708 320.3911 14.73014235125610
CHUBUSAT-2              
1 41338U 16012B   18037.48283453  .00000312  00000-0  17616-4 0  9996
2 41338  31.0042  64.0310 0013869 219.0978 140.8656 14.99914613108194
CHUBUSAT-3              
1 41339U 16012C   18037.44657106  .00000288  00000-0  15705-4 0  9992
2 41339  31.0101  63.0456 0013816 225.7183 134.2322 15.00106420108172
OUFTI-1                 
1 41458U 16025C   18037.41155401  .00001373  00000-0  76422-4 0  9995
2 41458  98.1550  93.1935 0170135 225.6175 133.1015 15.04223367 97774
E-ST@R-II               
1 41459U 16025D   18037.39651267  .00000537  00000-0  33050-4 0  9995
2 41459  98.1543  93.0653 0170633 226.1176 132.5842 15.03982118 97768
AAUSAT 4                
1 41460U 16025E   18037.82487871  .00002425  00000-0  13046-3 0  9993
2 41460  98.1473  93.8298 0163239 221.6441 137.2253 15.05251837 97873
NUSAT 1 (LO-87)         
1 41557U 16033B   18037.79501861  .00001117  00000-0  43636-4 0  9997
2 41557  97.4450 122.2263 0012341 256.9458 103.0404 15.27968222 94246
BEESAT-4                
1 41619U 16040W   18037.42678715  .00001072  00000-0  50365-4 0  9994
2 41619  97.4329 102.2979 0010898 336.1081  23.9648 15.21717899 78204
PRATHAM                 
1 41783U 16059A   18037.15599230  .00000045  00000-0  18003-4 0  9992
2 41783  98.1363 100.7158 0034445 145.3685 214.9770 14.62898624 72806
ALSAT 1N                
1 41789U 16059G   18037.83836119  .00000082  00000-0  24731-4 0  9999
2 41789  98.1364 102.3485 0029680 135.5264 224.8311 14.64124847 72940
NAYIF-1 (EO-88)         
1 42017U 17008BX  18037.52017137  .00001238  00000-0  54034-4 0  9999
2 42017  97.4656 103.2769 0008030 114.6734 245.5340 15.24007575 54163
LILACSAT-1              
1 42725U 98067ME  18037.89685103  .00016503  00000-0  17978-3 0  9999
2 42725  51.6374 299.6446 0006009 106.6005 253.5650 15.63542206 40106
MAX VALIER SAT          
1 42778U 17036P   18037.60470882  .00000778  00000-0  38109-4 0  9996
2 42778  97.4218  99.3843 0013384 160.6403 199.5343 15.21016761 34658
FOX-1B (AO-91)          
1 43017U 17073E   18037.82050048  .00000960  00000-0  81400-4 0  9991
2 43017  97.6993 334.4675 0259954 336.2924  22.6481 14.77885702 11852
FOX-1D (AO-92)          
1 43137U 18004AC  18037.11637929  .00000837  00000-0  39342-4 0  9991
2 43137  97.5520  99.3573 0009319 189.7044 170.4013 15.22406381  3774
